{"type": "FeatureCollection", "features": [ {"type": "Feature", "properties": {"norad_id": 32234, "name": "FENGYUN 1C DEB", "group": "fengyun-1c-debris", "lat": -10.721771253699998, "lon": -149.12604065135523, "alt_km": 854.4310170706649, "timestamp": "2025-12-26T10:30:50.553910+00:00", "meta": {"OBJECT_NAME": "FENGYUN 1C DEB", "OBJECT_ID": "1999-025CWG", "EPOCH": "2025-12-14T12:38:46.497984", "MEAN_MOTION": 13.9413283, "ECCENTRICITY": 0.01374559, "INCLINATION": 98.529, "RA_OF_ASC_NODE": 198.2432, "ARG_OF_PERICENTER": 331.2039, "MEAN_ANOMALY": 28.1585, "EPHEMERIS_TYPE": 0, "CLASSIFICATION_TYPE": "U", "NORAD_CAT_ID": 32234, "ELEMENT_SET_NO": 999, "REV_AT_EPOCH": 93234, "BSTAR": 0.0014985343, "MEAN_MOTION_DOT": 2.108e-05, "MEAN_MOTION_DDOT": 0}, "tle": {"line1": "1 32234U 99025CWG 25348.52692706  .00002108  00000+0  14985-2 0  9997", "line2": "2 32234  98.5290 198.2432 0137455 331.2039  28.1585 13.94132830932348"}}, "geometry": {"type": "Point", "coordinates": [-149.12604065135523, -10.721771253699998]}}, {"type": "Feature", "properties": {"norad_id": 32241, "name": "FENGYUN 1C DEB", "group": "fengyun-1c-debris", "lat": -67.24102176192079, "lon": 52.84421760349467, "alt_km": 832.0049109064021, "timestamp": "2025-12-26T10:30:50.553920+00:00", "meta": {"OBJECT_NAME": "FENGYUN 1C DEB", "OBJECT_ID": "1999-025CWP", "EPOCH": "2025-12-22T19:26:55.545504", "MEAN_MOTION": 14.28813741, "ECCENTRICITY": 0.01466316, "INCLINATION": 99.0757, "RA_OF_ASC_NODE": 26.6735, "ARG_OF_PERICENTER": 194.5712, "MEAN_ANOMALY": 165.1219, "EPHEMERIS_TYPE": 0, "CLASSIFICATION_TYPE": "U", "NORAD_CAT_ID": 32241, "ELEMENT_SET_NO": 999, "REV_AT_EPOCH": 93967, "BSTAR": 0.0013225361, "MEAN_MOTION_DOT": 3.694e-05, "MEAN_MOTION_DDOT": 0}, "tle": {"line1": "1 32241U 99025CWP 25356.81036511  .00003694  00000+0  13225-2 0  9999", "line2": "2 32241  99.0757  26.6735 0146631 194.5712 165.1219 14.28813741939678"}}, "geometry": {"type": "Point", "coordinates": [52.84421760349467, -67.24102176192079]}}, {"type": "Feature", "properties": {"norad_id": 32243, "name": "FENGYUN 1C DEB", "group": "fengyun-1c-debris", "lat": 52.13220514194155, "lon": -145.3617665290437, "alt_km": 726.1620053798442, "timestamp": "2025-12-26T10:30:50.553930+00:00", "meta": {"OBJECT_NAME": "FENGYUN 1C DEB", "OBJECT_ID": "1999-025CWR", "EPOCH": "2025-12-24T13:29:19.216608", "MEAN_MOTION": 14.04698676, "ECCENTRICITY": 0.02689617, "INCLINATION": 98.2678, "RA_OF_ASC_NODE": 22.149, "ARG_OF_PERICENTER": 89.9627, "MEAN_ANOMALY": 273.2359, "EPHEMERIS_TYPE": 0, "CLASSIFICATION_TYPE": "U", "NORAD_CAT_ID": 32243, "ELEMENT_SET_NO": 999, "REV_AT_EPOCH": 93754, "BSTAR": 0.0020051854, "MEAN_MOTION_DOT": 4.402e-05, "MEAN_MOTION_DDOT": 0}, "tle": {"line1": "1 32243U 99025CWR 25358.56202797  .00004402  00000+0  20052-2 0  9990", "line2": "2 32243  98.2678  22.1490 0268961  89.9627 273.2359 14.04698676937547"}}, "geometry": {"type": "Point", "coordinates": [-145.3617665290437, 52.13220514194155]}}, {"type": "Feature", "properties": {"norad_id": 32245, "name": "FENGYUN 1C DEB", "group": "fengyun-1c-debris", "lat": 2.207506282924352, "lon": -162.85424316816238, "alt_km": 610.3218056225687, "timestamp": "2025-12-26T10:30:50.553940+00:00", "meta": {"OBJECT_NAME": "FENGYUN 1C DEB", "OBJECT_ID": "1999-025CWT", "EPOCH": "2025-12-23T19:06:09.631584", "MEAN_MOTION": 14.77154099, "ECCENTRICITY": 0.00966875, "INCLINATION": 98.6537, "RA_OF_ASC_NODE": 194.6492, "ARG_OF_PERICENTER": 306.9863, "MEAN_ANOMALY": 52.2524, "EPHEMERIS_TYPE": 0, "CLASSIFICATION_TYPE": "U", "NORAD_CAT_ID": 32245, "ELEMENT_SET_NO": 999, "REV_AT_EPOCH": 66269, "BSTAR": 0.0012005122, "MEAN_MOTION_DOT": 9.119e-05, "MEAN_MOTION_DDOT": 0}, "tle": {"line1": "1 32245U 99025CWT 25357.79594481  .00009119  00000+0  12005-2 0  9999", "line2": "2 32245  98.6537 194.6492 0096687 306.9863  52.2524 14.77154099662698"}}, "geometry": {"type": "Point", "coordinates": [-162.85424316816238, 2.207506282924352]}}, {"type": "Feature", "properties": {"norad_id": 32304, "name": "FENGYUN 1C DEB", "group": "fengyun-1c-debris", "lat": 39.74776137458104, "lon": 144.5066008321575, "alt_km": 695.5160834289063, "timestamp": "2025-12-26T10:30:50.553950+00:00", "meta": {"OBJECT_NAME": "FENGYUN 1C DEB", "OBJECT_ID": "1999-025CWV", "EPOCH": "2025-12-24T03:14:40.087680", "MEAN_MOTION": 14.50665703, "ECCENTRICITY": 0.00495698, "INCLINATION": 99.3996, "RA_OF_ASC_NODE": 314.0193, "ARG_OF_PERICENTER": 191.8113, "MEAN_ANOMALY": 168.1919, "EPHEMERIS_TYPE": 0, "CLASSIFICATION_TYPE": "U", "NORAD_CAT_ID": 32304, "ELEMENT_SET_NO": 999, "REV_AT_EPOCH": 56438, "BSTAR": 0.0011837985, "MEAN_MOTION_DOT": 4.67e-05, "MEAN_MOTION_DDOT": 0}, "tle": {"line1": "1 32304U 99025CWV 25358.13518620  .00004670  00000+0  11838-2 0  9995", "line2": "2 32304  99.3996 314.0193 0049569 191.8113 168.1919 14.50665703564385"}}, "geometry": {"type": "Point", "coordinates": [144.5066008321575, 39.74776137458104]}}, {"type": "Feature", "properties": {"norad_id": 32308, "name": "FENGYUN 1C DEB", "group": "fengyun-1c-debris", "lat": -21.53385128984821, "lon": 54.489249458458424, "alt_km": 821.7167815770863, "timestamp": "2025-12-26T10:30:50.553962+00:00", "meta": {"OBJECT_NAME": "FENGYUN 1C DEB", "OBJECT_ID": "1999-025CWZ", "EPOCH": "2025-12-24T02:14:10.219776", "MEAN_MOTION": 14.05552927, "ECCENTRICITY": 0.01076508, "INCLINATION": 97.7728, "RA_OF_ASC_NODE": 49.387, "ARG_OF_PERICENTER": 27.4361, "MEAN_ANOMALY": 333.2438, "EPHEMERIS_TYPE": 0, "CLASSIFICATION_TYPE": "U", "NORAD_CAT_ID": 32308, "ELEMENT_SET_NO": 999, "REV_AT_EPOCH": 65571, "BSTAR": 0.0016207472, "MEAN_MOTION_DOT": 2.742e-05, "MEAN_MOTION_DDOT": 0}, "tle": {"line1": "1 32308U 99025CWZ 25358.09317384  .00002742  00000+0  16207-2 0  9991", "line2": "2 32308  97.7728  49.3870 0107650  27.4361 333.2438 14.05552927655711"}}, "geometry": {"type": "Point", "coordinates": [54.489249458458424, -21.53385128984821]}}, {"type": "Feature", "properties": {"norad_id": 32314, "name": "FENGYUN 1C DEB", "group": "fengyun-1c-debris", "lat": -68.90790184690266, "lon": -96.97446167771716, "alt_km": 711.3666642353801, "timestamp": "2025-12-26T10:30:50.553972+00:00", "meta": {"OBJECT_NAME": "FENGYUN 1C DEB", "OBJECT_ID": "1999-025CXF", "EPOCH": "2025-12-24T00:35:54.225888", "MEAN_MOTION": 14.79780082, "ECCENTRICITY": 0.01485363, "INCLINATION": 98.8637, "RA_OF_ASC_NODE": 104.2292, "ARG_OF_PERICENTER": 122.2161, "MEAN_ANOMALY": 239.3548, "EPHEMERIS_TYPE": 0, "CLASSIFICATION_TYPE": "U", "NORAD_CAT_ID": 32314, "ELEMENT_SET_NO": 999, "REV_AT_EPOCH": 97597, "BSTAR": 0.0012677731, "MEAN_MOTION_DOT": 0.00011459, "MEAN_MOTION_DDOT": 0}, "tle": {"line1": "1 32314U 99025CXF 25358.02493317  .00011459  00000+0  12678-2 0  9995", "line2": "2 32314  98.8637 104.2292 0148536 122.2161 239.3548 14.79780082975975"}}, "geometry": {"type": "Point", "coordinates": [-96.97446167771716, -68.90790184690266]}}, {"type": "Feature", "properties": {"norad_id": 32316, "name": "FENGYUN 1C DEB", "group": "fengyun-1c-debris", "lat": -23.67544211671593, "lon": 32.946910358864436, "alt_km": 711.883627679852, "timestamp": "2025-12-26T10:30:50.553982+00:00", "meta": {"OBJECT_NAME": "FENGYUN 1C DEB", "OBJECT_ID": "1999-025CXH", "EPOCH": "2025-12-26T00:50:51.057888", "MEAN_MOTION": 14.52040416, "ECCENTRICITY": 0.0026483, "INCLINATION": 99.5277, "RA_OF_ASC_NODE": 28.2675, "ARG_OF_PERICENTER": 288.9464, "MEAN_ANOMALY": 102.6722, "EPHEMERIS_TYPE": 0, "CLASSIFICATION_TYPE": "U", "NORAD_CAT_ID": 32316, "ELEMENT_SET_NO": 999, "REV_AT_EPOCH": 95970, "BSTAR": 0.0017127, "MEAN_MOTION_DOT": 6.906e-05, "MEAN_MOTION_DDOT": 0}, "tle": {"line1": "1 32316U 99025CXH 25360.03531317  .00006906  00000+0  17127-2 0  9999", "line2": "2 32316  99.5277  28.2675 0026483 288.9464 102.6722 14.52040416959707"}}, "geometry": {"type": "Point", "coordinates": [32.946910358864436, -23.67544211671593]}}, {"type": "Feature", "properties": {"norad_id": 32320, "name": "FENGYUN 1C DEB", "group": "fengyun-1c-debris", "lat": -11.35764481251983, "lon": 38.18352683093956, "alt_km": 815.55634498779, "timestamp": "2025-12-26T10:30:50.553992+00:00", "meta": {"OBJECT_NAME": "FENGYUN 1C DEB", "OBJECT_ID": "1999-025CXM", "EPOCH": "2025-12-22T13:40:01.485696", "MEAN_MOTION": 14.36184874, "ECCENTRICITY": 0.00563271, "INCLINATION": 100.3743, "RA_OF_ASC_NODE": 215.6434, "ARG_OF_PERICENTER": 20.562, "MEAN_ANOMALY": 339.7809, "EPHEMERIS_TYPE": 0, "CLASSIFICATION_TYPE": "U", "NORAD_CAT_ID": 32320, "ELEMENT_SET_NO": 999, "REV_AT_EPOCH": 62314, "BSTAR": 0.00080066541, "MEAN_MOTION_DOT": 2.318e-05, "MEAN_MOTION_DDOT": 0}, "tle": {"line1": "1 32320U 99025CXM 25356.56946164  .00002318  00000+0  80067-3 0  9994", "line2": "2 32320 100.3743 215.6434 0056327  20.5620 339.7809 14.36184874623144"}}, "geometry": {"type": "Point", "coordinates": [38.18352683093956, -11.35764481251983]}}, {"type": "Feature", "properties": {"norad_id": 32322, "name": "FENGYUN 1C DEB", "group": "fengyun-1c-debris", "lat": -68.80094292368082, "lon": -97.60097295245349, "alt_km": 1348.1388191148626, "timestamp": "2025-12-26T10:30:50.554002+00:00", "meta": {"OBJECT_NAME": "FENGYUN 1C DEB", "OBJECT_ID": "1999-025CXP", "EPOCH": "2025-12-21T10:17:00.184704", "MEAN_MOTION": 13.34155768, "ECCENTRICITY": 0.04195743, "INCLINATION": 98.3703, "RA_OF_ASC_NODE": 235.9789, "ARG_OF_PERICENTER": 75.736, "MEAN_ANOMALY": 288.998, "EPHEMERIS_TYPE": 0, "CLASSIFICATION_TYPE": "U", "NORAD_CAT_ID": 32322, "ELEMENT_SET_NO": 999, "REV_AT_EPOCH": 60495, "BSTAR": 0.0012702386, "MEAN_MOTION_DOT": 1.01e-05, "MEAN_MOTION_DDOT": 0}, "tle": {"line1": "1 32322U 99025CXP 25355.42847436  .00001010  00000+0  12702-2 0  9990", "line2": "2 32322  98.3703 235.9789 0419574  75.7360 288.9980 13.34155768604956"}}, "geometry": {"type": "Point", "coordinates": [-97.60097295245349, -68.80094292368082]}}]}